{
  "type": "FeatureCollection",
  "features": [
    {
      "type": "Feature",
      "properties": { "name": "Ba Dinh" },
      "geometry": {
        "type": "Polygon",
        "coordinates": [[[105.82, 21.04], [105.83, 21.04], [105.83, 21.05], [105.82, 21.05], [105.82, 21.04]]]
      }
    },
    {
      "type": "Feature",
      "properties": { "name": "Dong Da" },
      "geometry": {
        "type": "Polygon",
        "coordinates": [[[105.83, 21.03], [105.84, 21.03], [105.84, 21.04], [105.83, 21.04], [105.83, 21.03]]]
      }
    },
    {
      "type": "Feature",
      "properties": { "name": "Hoan Kiem" },
      "geometry": {
        "type": "Polygon",
        "coordinates": [[[105.85, 21.03], [105.86, 21.03], [105.86, 21.04], [105.85, 21.04], [105.85, 21.03]]]
      }
    },
    {
      "type": "Feature",
      "properties": { "name": "Hai Ba Trung" },
      "geometry": {
        "type": "Polygon",
        "coordinates": [[[105.86, 21.02], [105.87, 21.02], [105.87, 21.03], [105.86, 21.03], [105.86, 21.02]]]
      }
    },
    {
      "type": "Feature",
      "properties": { "name": "Cau Giay" },
      "geometry": {
        "type": "Polygon",
        "coordinates": [[[105.79, 21.04], [105.80, 21.04], [105.80, 21.05], [105.79, 21.05], [105.79, 21.04]]]
      }
    }

    // ... tiếp tục với các quận/huyện khác như Thanh Xuan, Tay Ho, Long Bien, Gia Lam, etc.
  ]
}
